IRIDIUM 26              
1 24903U 97043A   25238.99518244  .00000340  00000+0  10782-3 0  9990
2 24903  86.3900  80.8594 0002037  93.8174 266.3256 14.37188740466913
IRIDIUM 22              
1 24907U 97043E   25238.84427375  .00000305  00000+0  98112-4 0  9997
2 24907  86.3905  84.5263 0002192  90.6737 269.4711 14.35996712466912
DUMMY MASS 1            
1 24925U 97048A   25239.14278590  .00000382  00000+0  39471-4 0  9997
2 24925  86.3312 102.5197 0004336 247.2337 112.8430 14.87034555515671
DUMMY MASS 2            
1 24926U 97048B   25239.04945340  .00000361  00000+0  37380-4 0  9995
2 24926  86.3315 104.1844 0005017 266.2973  93.7678 14.86786352515439
IRIDIUM 29              
1 24944U 97051A   25239.12055277  .00000370  00000+0  11931-3 0  9992
2 24944  86.3942 114.1518 0002313  82.5119 277.6341 14.36515889463455
IRIDIUM 33              
1 24946U 97051C   25238.90148609  .00000223  00000+0  71523-4 0  9992
2 24946  86.3857 113.5098 0006988 192.7189 167.3832 14.34928285462883
IRIDIUM 28              
1 24948U 97051E   25239.04923341  .00000319  00000+0  10005-3 0  9997
2 24948  86.3943 111.6558 0001883  99.3287 260.8124 14.37426158464027
IRIDIUM 36              
1 24967U 97056C   25239.00145549  .00000336  00000+0  10532-3 0  9999
2 24967  86.4013 143.2793 0002287  91.2514 268.8946 14.37653829462397
